{"epoch":1784710044,"count":18256,"objects":[{"id":"48054","name":"ONEWEB-0158","type":"PAYLOAD","l1":"1 48054U 21025N   26202.33205566 -.00000233  00000-0 -67379-3 0  9998","l2":"2 48054  87.8988 313.4254 0001903 109.3245 250.8090 13.13471738258119"},{"id":"48055","name":"ONEWEB-0157","type":"PAYLOAD","l1":"1 48055U 21025P   26202.35743734  .00000099  00000-0  23536-3 0  9990","l2":"2 48055  87.8985 313.4254 0002277  94.2419 265.8971 13.13472250258054"},{"id":"48056","name":"ONEWEB-0162","type":"PAYLOAD","l1":"1 48056U 21025Q   26202.33361706 -.00000212  00000-0 -61513-3 0  9990","l2":"2 48056  87.8985 313.4302 0001864  95.9748 264.1593 13.13469683258028"},{"id":"48057","name":"ONEWEB-0155","type":"PAYLOAD","l1":"1 48057U 21025R   26202.56903448 -.00000421  00000-0 -11873-2 0  9996","l2":"2 48057  87.8987 313.3801 0001989  96.9044 263.2312 13.13470306258193"},{"id":"48058","name":"ONEWEB-0149","type":"PAYLOAD","l1":"1 48058U 21025S   26202.59106395  .00000214  00000-0  55006-3 0  9991","l2":"2 48058  87.8986 313.3800 0001828  94.6483 265.4855 13.13471057258006"},{"id":"48059","name":"ONEWEB-0148","type":"PAYLOAD","l1":"1 48059U 21025T   26202.62999624 -.00000083  00000-0 -26311-3 0  9994","l2":"2 48059  87.8983 313.3770 0001798  82.6780 277.4553 13.13469162258139"},{"id":"48060","name":"ONEWEB-0160","type":"PAYLOAD","l1":"1 48060U 21025U   26202.34220657 -.00000258  00000-0 -74008-3 0  9998","l2":"2 48060  87.8979 313.4302 0001597 121.4020 238.7265 13.13470575258044"},{"id":"48061","name":"ONEWEB-0163","type":"PAYLOAD","l1":"1 48061U 21025V   26202.55551128 -.00000114  00000-0 -34636-3 0  9996","l2":"2 48061  87.8990 313.3848 0002213  95.6868 264.4514 13.13469498258191"},{"id":"48062","name":"ONEWEB-0159","type":"PAYLOAD","l1":"1 48062U 21025W   26202.54704629  .00000095  00000-0  22406-3 0  9990","l2":"2 48062  87.8991 313.3805 0002181  96.8376 263.3001 13.13469778258119"},{"id":"48063","name":"ONEWEB-0164","type":"PAYLOAD","l1":"1 48063U 21025X   26202.60460544  .00000259  00000-0  67340-3 0  9991","l2":"2 48063  87.8990 313.3754 0001910 101.7987 258.3356 13.13469583258105"},{"id":"48064","name":"ONEWEB-0167","type":"PAYLOAD","l1":"1 48064U 21025Y   26202.32782894 -.00000172  00000-0 -50505-3 0  9997","l2":"2 48064  87.8981 313.4367 0002601 103.5939 256.5480 13.13470122258055"},{"id":"48065","name":"ONEWEB-0166","type":"PAYLOAD","l1":"1 48065U 21025Z   26202.57921054 -.00000162  00000-0 -47774-3 0  9991","l2":"2 48065  87.8990 313.3620 0001933  97.8950 262.2398 13.13470570258163"},{"id":"48066","name":"ONEWEB-0151","type":"PAYLOAD","l1":"1 48066U 21025AA  26202.35236212 -.00000027  00000-0 -10859-3 0  9997","l2":"2 48066  87.8989 313.4218 0002081 102.3198 257.8164 13.13471042258073"},{"id":"48067","name":"ONEWEB-0170","type":"PAYLOAD","l1":"1 48067U 21025AB  26202.36083093  .00000209  00000-0  53604-3 0  9991","l2":"2 48067  87.8989 313.4221 0002024 115.5142 244.6196 13.13470303258034"},{"id":"48068","name":"ONEWEB-0168","type":"PAYLOAD","l1":"1 48068U 21025AC  26202.26941853 -.00000188  00000-0 -55027-3 0  9997","l2":"2 48068  87.8988 313.4417 0002027 100.3230 259.8128 13.13469919258038"},{"id":"48069","name":"ONEWEB-0173","type":"PAYLOAD","l1":"1 48069U 21025AD  26202.33713178 -.00000241  00000-0 -69388-3 0  9998","l2":"2 48069  87.8983 313.4278 0002334  97.5246 262.6148 13.13470217258288"},{"id":"48070","name":"ONEWEB-0171","type":"PAYLOAD","l1":"1 48070U 21025AE  26202.29820103  .00000399  00000-0  10582-2 0  9995","l2":"2 48070  87.8980 313.4426 0002002 102.2456 257.8897 13.13469807258090"},{"id":"48071","name":"ONEWEB-0172","type":"PAYLOAD","l1":"1 48071U 21025AF  26202.58258388  .00000003  00000-0 -25602-4 0  9992","l2":"2 48071  87.8991 313.3789 0002144 100.6344 259.5027 13.13471734259029"},{"id":"48072","name":"ONEWEB-0174","type":"PAYLOAD","l1":"1 48072U 21025AG  26202.56397578 -.00000229  00000-0 -66314-3 0  9991","l2":"2 48072  87.8990 313.3811 0001946  95.4091 264.7261 13.13469784258348"},{"id":"48073","name":"ONEWEB-0175","type":"PAYLOAD","l1":"1 48073U 21025AH  26202.28973613  .00000306  00000-0  80341-3 0  9991","l2":"2 48073  87.8988 313.4212 0002171 107.7729 252.3637 13.13470345257960"},{"id":"48074","name":"ONEWEB-0177","type":"PAYLOAD","l1":"1 48074U 21025AJ  26202.60629601  .00000388  00000-0  10276-2 0  9992","l2":"2 48074  87.8988 313.3758 0002064  94.1654 265.9711 13.13470210258192"},{"id":"48075","name":"ONEWEB-0178","type":"PAYLOAD","l1":"1 48075U 21025AK  26202.32034089  .00000004  00000-0 -23555-4 0  9994","l2":"2 48075  87.8978 313.4416 0002206 101.9122 258.2254 13.13470270258204"},{"id":"48076","name":"ONEWEB-0108","type":"PAYLOAD","l1":"1 48076U 21025AL  26202.58428744  .00000036  00000-0  63530-4 0  9999","l2":"2 48076  87.8989 313.3725 0001729  98.9740 261.1585 13.13471015258162"},{"id":"48077","name":"ONEWEB-0169","type":"PAYLOAD","l1":"1 48077U 21025AM  26202.31174457  .00000223  00000-0  57445-3 0  9995","l2":"2 48077  87.8989 313.4322 0001922  95.1108 265.0240 13.13469824256781"},{"id":"48210","name":"ONEWEB-0176","type":"PAYLOAD","l1":"1 48210U 21031A   26202.27976276  .00000174  00000-0  43507-3 0  9994","l2":"2 48210  87.8961 282.9069 0002120  99.9453 260.1917 13.14502442252793"},{"id":"48211","name":"ONEWEB-0184","type":"PAYLOAD","l1":"1 48211U 21031B   26202.48115587 -.00000192  00000-0 -55362-3 0  9992","l2":"2 48211  87.8966 282.8693 0002774 109.4360 250.7069 13.14502953252790"},{"id":"48212","name":"ONEWEB-0179","type":"PAYLOAD","l1":"1 48212U 21031C   26202.27984760  .00000225  00000-0  66260-4 0  9992","l2":"2 48212  87.8982 278.7681 0222545 145.7050 215.8746 14.25575968253906"},{"id":"48213","name":"ONEWEB-0180","type":"PAYLOAD","l1":"1 48213U 21031D   26202.25597441 -.00000239  00000-0 -67848-3 0  9996","l2":"2 48213  87.8972 282.9115 0002432  95.4556 264.6852 13.14502862252693"},{"id":"48214","name":"ONEWEB-0218","type":"PAYLOAD","l1":"1 48214U 21031E   26202.50652153  .00000215  00000-0  54650-3 0  9996","l2":"2 48214  87.8972 282.8608 0002894 104.3377 255.8074 13.14504330252884"},{"id":"48215","name":"ONEWEB-0209","type":"PAYLOAD","l1":"1 48215U 21031F   26202.26707460 -.00000025  00000-0 -10074-3 0  9995","l2":"2 48215  87.8961 282.9224 0002196  93.8601 266.2780 13.14503929252855"}]}