OBJECT_NAME,OBJECT_ID,EPOCH,MEAN_MOTION,ECCENTRICITY,INCLINATION,RA_OF_ASC_NODE,ARG_OF_PERICENTER,MEAN_ANOMALY,EPHEMERIS_TYPE,CLASSIFICATION_TYPE,NORAD_CAT_ID,ELEMENT_SET_NO,REV_AT_EPOCH,BSTAR,MEAN_MOTION_DOT,MEAN_MOTION_DDOT
ONEWEB-0158,2021-025N,2026-07-21T07:58:09.609024,13.13471738,.00019032,87.8988,313.4254,109.3245,250.8090,0,U,48054,999,25811,-.67379246E-3,-.233E-5,0
ONEWEB-0157,2021-025P,2026-07-21T08:34:42.586176,13.13472250,.00022765,87.8985,313.4254,94.2419,265.8971,0,U,48055,999,25805,.23535744E-3,.99E-6,0
ONEWEB-0162,2021-025Q,2026-07-21T08:00:24.513984,13.13469683,.00018638,87.8985,313.4302,95.9748,264.1593,0,U,48056,999,25802,-.61513218E-3,-.212E-5,0
ONEWEB-0155,2021-025R,2026-07-21T13:39:24.579072,13.13470306,.00019892,87.8987,313.3801,96.9044,263.2312,0,U,48057,999,25819,-.11873169E-2,-.421E-5,0
ONEWEB-0149,2021-025S,2026-07-21T14:11:07.925280,13.13471057,.00018278,87.8986,313.3800,94.6483,265.4855,0,U,48058,999,25800,.55005501E-3,.214E-5,0
ONEWEB-0148,2021-025T,2026-07-21T15:07:11.675136,13.13469162,.00017984,87.8983,313.3770,82.6780,277.4553,0,U,48059,999,25813,-.26310624E-3,-.83E-6,0
ONEWEB-0160,2021-025U,2026-07-21T08:12:46.647648,13.13470575,.00015974,87.8979,313.4302,121.4020,238.7265,0,U,48060,999,25804,-.74008146E-3,-.258E-5,0
ONEWEB-0163,2021-025V,2026-07-21T13:19:56.174592,13.13469498,.00022132,87.8990,313.3848,95.6868,264.4514,0,U,48061,999,25819,-.34636415E-3,-.114E-5,0
ONEWEB-0159,2021-025W,2026-07-21T13:07:44.799456,13.13469778,.00021807,87.8991,313.3805,96.8376,263.3001,0,U,48062,999,25811,.22405983E-3,.95E-6,0
ONEWEB-0164,2021-025X,2026-07-21T14:30:37.910016,13.13469583,.000191,87.8990,313.3754,101.7987,258.3356,0,U,48063,999,25810,.67340082E-3,.259E-5,0
ONEWEB-0167,2021-025Y,2026-07-21T07:52:04.420416,13.13470122,.0002601,87.8981,313.4367,103.5939,256.5480,0,U,48064,999,25805,-.50505164E-3,-.172E-5,0
ONEWEB-0166,2021-025Z,2026-07-21T13:54:03.790656,13.13470570,.00019328,87.8990,313.3620,97.8950,262.2398,0,U,48065,999,25816,-.4777439E-3,-.162E-5,0
ONEWEB-0151,2021-025AA,2026-07-21T08:27:24.087168,13.13471042,.00020811,87.8989,313.4218,102.3198,257.8164,0,U,48066,999,25807,-.10858936E-3,-.27E-6,0
ONEWEB-0170,2021-025AB,2026-07-21T08:39:35.792352,13.13470303,.00020238,87.8989,313.4221,115.5142,244.6196,0,U,48067,999,25803,.53604383E-3,.209E-5,0
ONEWEB-0168,2021-025AC,2026-07-21T06:27:57.760992,13.13469919,.00020273,87.8988,313.4417,100.3230,259.8128,0,U,48068,999,25803,-.55027066E-3,-.188E-5,0
ONEWEB-0173,2021-025AD,2026-07-21T08:05:28.185792,13.13470217,.00023345,87.8983,313.4278,97.5246,262.6148,0,U,48069,999,25828,-.6938835E-3,-.241E-5,0
ONEWEB-0171,2021-025AE,2026-07-21T07:09:24.568992,13.13469807,.00020016,87.8980,313.4426,102.2456,257.8897,0,U,48070,999,25809,.10582027E-2,.399E-5,0
ONEWEB-0172,2021-025AF,2026-07-21T13:58:55.247232,13.13471734,.00021439,87.8991,313.3789,100.6344,259.5027,0,U,48071,999,25902,-.25601603E-4,.3E-7,0
ONEWEB-0174,2021-025AG,2026-07-21T13:32:07.507392,13.13469784,.00019457,87.8990,313.3811,95.4091,264.7261,0,U,48072,999,25834,-.66314131E-3,-.229E-5,0
ONEWEB-0175,2021-025AH,2026-07-21T06:57:13.201632,13.13470345,.0002171,87.8988,313.4212,107.7729,252.3637,0,U,48073,999,25796,.80340773E-3,.306E-5,0
ONEWEB-0177,2021-025AJ,2026-07-21T14:33:03.975264,13.13470210,.00020641,87.8988,313.3758,94.1654,265.9711,0,U,48074,999,25819,.10275552E-2,.388E-5,0
ONEWEB-0178,2021-025AK,2026-07-21T07:41:17.452896,13.13470270,.00022055,87.8978,313.4416,101.9122,258.2254,0,U,48075,999,25820,-.23554605E-4,.4E-7,0
ONEWEB-0108,2021-025AL,2026-07-21T14:01:22.434816,13.13471015,.00017286,87.8989,313.3725,98.9740,261.1585,0,U,48076,999,25816,.63530208E-4,.36E-6,0
ONEWEB-0169,2021-025AM,2026-07-21T07:28:54.730848,13.13469824,.00019225,87.8989,313.4322,95.1108,265.0240,0,U,48077,999,25678,.57445359E-3,.223E-5,0
ONEWEB-0176,2021-031A,2026-07-21T06:42:51.502464,13.14502442,.00021202,87.8961,282.9069,99.9453,260.1917,0,U,48210,999,25279,.43507274E-3,.174E-5,0
ONEWEB-0184,2021-031B,2026-07-21T11:32:51.867168,13.14502953,.0002774,87.8966,282.8693,109.4360,250.7069,0,U,48211,999,25279,-.55362272E-3,-.192E-5,0
ONEWEB-0179,2021-031C,2026-07-21T06:42:58.832640,14.25575968,.02225449,87.8982,278.7681,145.7050,215.8746,0,U,48212,999,25390,.66259793E-4,.225E-5,0
ONEWEB-0180,2021-031D,2026-07-21T06:08:36.189024,13.14502862,.0002432,87.8972,282.9115,95.4556,264.6852,0,U,48213,999,25269,-.67848142E-3,-.239E-5,0
ONEWEB-0218,2021-031E,2026-07-21T12:09:23.460192,13.14504330,.00028939,87.8972,282.8608,104.3377,255.8074,0,U,48214,999,25288,.54649922E-3,.215E-5,0
ONEWEB-0209,2021-031F,2026-07-21T06:24:35.245440,13.14503929,.00021959,87.8961,282.9224,93.8601,266.2780,0,U,48215,999,25285,-.10073845E-3,-.25E-6,0
